RAPIDEYE 2              
1 33312U 08040A   19136.34046173  .00000159  00000-0  26697-4 0  9991
2 33312  97.7456 206.1906 0012111 240.8372 119.1643 14.81651127578638
RAPIDEYE 5              
1 33313U 08040B   19136.22878728  .00000794  00000-0  10724-3 0  9996
2 33313  97.7555 204.9064 0016761 113.8861 246.4118 14.81660657578568
RAPIDEYE 1              
1 33314U 08040C   19136.21718771  .00000733  00000-0  99364-4 0  9998
2 33314  97.7487 205.8275 0024352 253.9136 105.9394 14.81647132578606
RAPIDEYE 3              
1 33315U 08040D   19136.32069432 -.00000422  00000-0 -47076-4 0  9994
2 33315  97.7551 204.8819 0011002 193.4267 166.6683 14.81649562578584
RAPIDEYE 4              
1 33316U 08040E   19136.37599200 -.00000245  00000-0 -24650-4 0  9997
2 33316  97.7593 204.7841 0010542 132.7703 227.4406 14.81650820578582
SKYSAT-1                
1 39418U 13066C   19136.20219969 -.00000499  00000-0 -36301-4 0  9990
2 39418  97.6523 218.6651 0022817  97.5713 262.8103 14.98826686299628
FLOCK 1C-10             
1 40023U 14033P   19136.36209602  .00000590  00000-0  67553-4 0  9992
2 40023  97.9234  58.9871 0012811 163.0243 197.1405 14.89691843266414
FLOCK 1C-7              
1 40026U 14033S   19135.82942201  .00000607  00000-0  68119-4 0  9992
2 40026  97.9289  60.2646 0011359 158.5118 201.6579 14.90443306266424
FLOCK 1C-1              
1 40027U 14033T   19136.36961588  .00000587  00000-0  67094-4 0  9990
2 40027  97.9261  59.4623 0012849 160.1294 200.0426 14.89747437266423
FLOCK 1C-2              
1 40029U 14033V   19136.31612598  .00000627  00000-0  71220-4 0  9992
2 40029  97.9249  59.2123 0014109 159.5316 200.6470 14.89780783266417
FLOCK 1C-4              
1 40031U 14033X   19136.37492366  .00000443  00000-0  52578-4 0  9991
2 40031  97.9253  59.0220 0014874 156.2291 203.9616 14.89417643266393
FLOCK 1C-11             
1 40033U 14033Z   19136.10709717  .00000357  00000-0  42108-4 0  9997
2 40033  97.9330  62.0571 0012776 147.0674 213.1342 14.90819169266543
FLOCK 1C-9              
1 40035U 14033AB  19136.35110287  .00000655  00000-0  74045-4 0  9990
2 40035  97.9293  59.9716 0012247 149.4611 210.7321 14.89830366266426
FLOCK 1C-6              
1 40036U 14033AC  19135.98715355  .00000692  00000-0  77785-4 0  9991
2 40036  97.9313  60.0499 0012368 151.1082 209.0823 14.89935611266389
FLOCK 1C-5              
1 40038U 14033AE  19136.34329482  .00000699  00000-0  78548-4 0  9991
2 40038  97.9288  60.0110 0014514 150.6736 209.5299 14.89903133266439
FLOCK 1C-8              
1 40040U 14033AG  19135.63013381  .00000643  00000-0  69499-4 0  9997
2 40040  97.9430  64.2066 0013499 134.3780 225.8546 14.91801398266086
FLOCK 1C-3              
1 40041U 14033AH  19136.32140394  .00000620  00000-0  70960-4 0  9990
2 40041  97.9272  59.3927 0013662 149.8095 210.3912 14.89550051266387
SKYSAT-2                
1 40072U 14037D   19136.01259726  .00000140  00000-0  25534-4 0  9998
2 40072  98.4225 288.1292 0005883 342.8992  17.2020 14.81177128262268
SKYSAT-C1               
1 41601U 16040C   19136.32381628  .00000831  00000-0  37897-4 0  9996
2 41601  97.4068 215.3773 0001567  84.2751   1.2495 15.23361256160981
FLOCK 2P-6              
1 41606U 16040H   19136.18171193  .00001598  00000-0  65946-4 0  9996
2 41606  97.3720 201.5051 0011580 133.9852 226.2343 15.25444615161026
FLOCK 2P-11             
1 41608U 16040K   19136.22799551  .00004019  00000-0  15742-3 0  9996
2 41608  97.3698 201.6503 0011324 132.9857 227.2333 15.26309228160980
FLOCK 2P-2              
1 41609U 16040L   19135.75638591  .00001458  00000-0  60658-4 0  9991
2 41609  97.3718 201.0105 0011488 135.4877 224.7286 15.25317904160873
FLOCK 2P-9              
1 41610U 16040M   19136.23076524  .00001470  00000-0  61064-4 0  9995
2 41610  97.3716 201.4091 0012080 133.4544 226.7701 15.25332234160821
FLOCK 2P-4              
1 41611U 16040N   19135.85965033  .00003922  00000-0  15521-3 0  9995
2 41611  97.3740 201.6503 0011404 142.6999 217.5033 15.25980058160946
FLOCK 2P-10             
1 41612U 16040P   19136.21987319  .00002473  00000-0  10061-3 0  9992
2 41612  97.3753 202.0184 0011549 142.3028 217.9022 15.25410314160991
FLOCK 2P-8              
1 41613U 16040Q   19136.19023432  .00002318  00000-0  94696-4 0  9992
2 41613  97.3749 201.8474 0011841 141.8282 218.3797 15.25325484160983
FLOCK 2P-12             
1 41614U 16040R   19135.23171029  .00003281  00000-0  13280-3 0  9992
2 41614  97.3760 201.1379 0011485 145.2494 214.9496 15.25344648160847
FLOCK 2P-7              
1 41615U 16040S   19135.14554349  .00004966  00000-0  19480-3 0  9992
2 41615  97.3723 200.8759 0011037 145.7007 214.4946 15.26146719160837
FLOCK 2P-5              
1 41616U 16040T   19136.22871857  .00002410  00000-0  98292-4 0  9990
2 41616  97.3759 202.0912 0011412 141.7814 218.4236 15.25345137160976
FLOCK 2P-1              
1 41617U 16040U   19135.94900255  .00003755  00000-0  14914-3 0  9995
2 41617  97.3744 201.8707 0011221 142.2163 217.9865 15.25890224160953
FLOCK 2P-3              
1 41618U 16040V   19136.17571685  .00001474  00000-0  61206-4 0  9996
2 41618  97.3762 202.0159 0011360 141.9806 218.2236 15.25356509160984
SKYSAT-C4               
1 41771U 16058B   19136.26126952  .00000704  00000-0  32529-4 0  9999
2 41771  97.4023 207.8381 0001358 103.7172 256.4216 15.23387701147920
SKYSAT-C5               
1 41772U 16058C   19136.35156896  .00000942  00000-0  42595-4 0  9998
2 41772  97.4005 207.4881 0001309 100.0976 323.9473 15.23343697147921
SKYSAT-C2               
1 41773U 16058D   19135.77563495  .00000690  00000-0  31961-4 0  9996
2 41773  97.4044 207.5059 0001950  91.3087 268.8374 15.23368515147844
SKYSAT-C3               
1 41774U 16058E   19136.24819030  .00000706  00000-0  32664-4 0  9998
2 41774  97.4055 207.9745 0001591  89.5552 270.5867 15.23337568147919
FLOCK 3P-20             
1 41950U 17008C   19136.18359330  .00001569  00000-0  65054-4 0  9992
2 41950  97.4079 203.4241 0007290 257.3028 102.7395 15.25355883124850
FLOCK 3P-8              
1 41951U 17008D   19136.18345974  .00001456  00000-0  60672-4 0  9998
2 41951  97.4081 203.4578 0006379 255.7653 104.2877 15.25301992124843
FLOCK 3P-51             
1 41952U 17008E   19135.75733371  .00001907  00000-0  78626-4 0  9992
2 41952  97.4087 203.1785 0006166 280.3100  79.7443 15.25292033124796
FLOCK 3P-37             
1 41953U 17008F   19135.74956612  .00003500  00000-0  13562-3 0  9995
2 41953  97.4094 204.0984 0005227 284.1808  75.8850 15.26813481124853
FLOCK 3P-19             
1 41955U 17008H   19135.40784305  .00001805  00000-0  74477-4 0  9997
2 41955  97.4076 202.6113 0007092 259.7902 100.2536 15.25323056124653
FLOCK 3P-24             
1 41956U 17008J   19135.75557715  .00004141  00000-0  15909-3 0  9999
2 41956  97.4066 203.6066 0006566 248.9133 111.1404 15.26979336124836
FLOCK 3P-18             
1 41957U 17008K   19135.85608344  .00004207  00000-0  16364-3 0  9995
2 41957  97.4055 203.4597 0006900 253.5690 106.4790 15.26556935124677
FLOCK 3P-22             
1 41958U 17008L   19136.18836992  .00003919  00000-0  15413-3 0  9998
2 41958  97.4084 203.5931 0006596 251.9853 108.0667 15.26234232124693
FLOCK 3P-21             
1 41959U 17008M   19136.21907951  .00003313  00000-0  13205-3 0  9992
2 41959  97.4087 203.6073 0006554 255.3276 104.7236 15.25899863124709
FLOCK 3P-28             
1 41960U 17008N   19136.18010852  .00003000  00000-0  12100-3 0  9991
2 41960  97.4083 203.4734 0006627 253.5137 106.5373 15.25577065124772
FLOCK 3P-26             
1 41961U 17008P   19135.75911978  .00003281  00000-0  12991-3 0  9992
2 41961  97.4079 203.2419 0006510 253.7080 106.3443 15.26125013124641
FLOCK 3P-17             
1 41962U 17008Q   19136.19566639  .00003664  00000-0  14373-3 0  9993
2 41962  97.4080 203.8628 0006150 254.4943 105.5617 15.26368037124670
FLOCK 3P-27             
1 41963U 17008R   19136.17588714  .00003222  00000-0  12795-3 0  9996
2 41963  97.4081 203.6121 0006661 252.0680 107.9833 15.26037537124705
FLOCK 3P-25             
1 41964U 17008S   19136.18631452  .00003854  00000-0  15224-3 0  9997
2 41964  97.4067 203.5676 0006764 252.4961 107.5538 15.26096547124685
FLOCK 3P-4              
1 41965U 17008T   19136.18901069  .00001551  00000-0  64462-4 0  9993
2 41965  97.4082 203.4526 0006564 255.7892 104.2617 15.25301610124774
FLOCK 3P-2              
1 41966U 17008U   19136.19033263  .00002720  00000-0  11085-3 0  9998
2 41966  97.4087 203.4840 0006431 253.1275 106.9258 15.25311286124690
FLOCK 3P-1              
1 41967U 17008V   19135.14415425  .00004568  00000-0  17900-3 0  9991
2 41967  97.4079 202.5823 0006272 258.1716 101.8819 15.26267848124547
FLOCK 3P-3              
1 41968U 17008W   19135.40345679  .00001630  00000-0  67603-4 0  9997
2 41968  97.4080 202.6609 0006497 258.1304 101.9205 15.25305934124565
FLOCK 3P-6              
1 41969U 17008X   19136.18583946  .00001488  00000-0  61934-4 0  9997
2 41969  97.4084 203.4836 0006363 253.7692 106.2846 15.25310369124684
FLOCK 3P-7              
1 41970U 17008Y   19136.18065235  .00003834  00000-0  14928-3 0  9992
2 41970  97.4078 203.9351 0006179 253.9026 106.1533 15.26587753124714
FLOCK 3P-5              
1 41971U 17008Z   19136.18812459  .00003887  00000-0  15403-3 0  9998
2 41971  97.4084 203.6573 0006395 256.8456 103.2069 15.25987610124632
FLOCK 3P-12             
1 41972U 17008AA  19135.78742851  .00001873  00000-0  77198-4 0  9995
2 41972  97.4087 203.1137 0006202 259.4121 100.6418 15.25324486124716
FLOCK 3P-9              
1 41973U 17008AB  19136.18485687  .00002396  00000-0  98005-4 0  9993
2 41973  97.4087 203.5159 0006319 255.3751 104.6786 15.25306107124776
FLOCK 3P-10             
1 41974U 17008AC  19136.23631589  .00003173  00000-0  12695-3 0  9998
2 41974  97.4090 203.7644 0005859 254.7961 105.2630 15.25807931124671
